INTELSAT 9 (IS-9)       
1 26451U 00043A   25092.72090558 -.00000021  00000+0  00000+0 0  9991
2 26451   9.4197  53.1632 0003341 332.6615 131.2427  1.00271146 39720
INTELSAT 10 (IS-10)     
1 26766U 01019A   25092.47999571 -.00000014  00000+0  00000+0 0  9991
2 26766   8.0203  63.7373 0003845 304.4182  61.8063  1.00270357 87513
INTELSAT 901 (IS-901)   
1 26824U 01024A   25093.45874898 -.00000219  00000+0  00000+0 0  9992
2 26824   0.1033  96.9162 0002432 272.1378 308.4496  0.98805207 87171
INTELSAT 902 (IS-902)   
1 26900U 01039A   25093.18901308 -.00000292  00000+0  00000+0 0  9991
2 26900   5.0025  77.1388 0004519 295.8807 196.7087  1.00271568 86353
INTELSAT 904 (IS-904)   
1 27380U 02007A   25092.31824757 -.00000221  00000+0  00000+0 0  9998
2 27380   5.8137  74.4403 0003103 299.6601 261.8662  1.00268401 47349
DIRECTV 5 (TEMPO 1)     
1 27426U 02023A   25092.51648544 -.00000064  00000+0  00000+0 0  9992
2 27426   3.7485  80.8118 0003330 292.4532 253.6447  1.00271554 83885
INTELSAT 905 (IS-905)   
1 27438U 02027A   25092.49797968 -.00000092  00000+0  00000+0 0  9992
2 27438   5.6423  75.0748 0005776 289.0141 272.8545  0.99736984 46948
GALAXY 3C (G-3C)        
1 27445U 02030A   25092.51952625 -.00000160  00000+0  00000+0 0  9996
2 27445   2.5931  83.6191 0002533  56.0797 143.5768  1.00271231 83539
INTELSAT 906 (IS-906)   
1 27513U 02041A   25093.12229751  .00000004  00000+0  00000+0 0  9995
2 27513   4.6814  78.3341 0002592 297.4954 284.0329  1.00272883 82556
GALAXY 23 (G-23)        
1 27854U 03034A   25093.55461139  .00000001  00000+0  00000+0 0  9998
2 27854   2.0590  85.1599 0002737 291.6773 254.0645  1.00270835 84133
GALAXY 13 (HORIZONS-1)  
1 27954U 03044A   25093.13738990  .00000122  00000+0  00000+0 0  9990
2 27954   0.2788  91.2263 0002383 283.9263  76.0083  1.00272316 78748
INTELSAT 10-02          
1 28358U 04022A   25092.39516398 -.00000019  00000+0  00000+0 0  9995
2 28358   0.0152 165.3423 0000921 175.6374 351.2836  1.00271360 76130
XM-3 (RHYTHM)           
1 28626U 05008A   25092.52117698 -.00000208  00000+0  00000+0 0  9993
2 28626   0.0434 264.6361 0001546 129.7432 258.0166  1.00270821 38201
DIRECTV 8               
1 28659U 05019A   25092.51474782 -.00000007  00000+0  00000+0 0  9997
2 28659   0.0174 158.2420 0002868 210.8930 248.2295  1.00273152 72656
GALAXY 28 (G-28)        
1 28702U 05022A   25092.52074257 -.00000196  00000+0  00000+0 0  9993
2 28702   2.1612  84.4133 0003376 234.6935 330.7579  1.00276909 72408
GALAXY 16 (G-16)        
1 29236U 06023A   25092.87572610 -.00000136  00000+0  00000+0 0  9996
2 29236   0.0184 211.1764 0002587 164.7226  31.8022  1.00271176 68857
DIRECTV 9S              
1 29494U 06043A   25093.22822491 -.00000123  00000+0  00000+0 0  9995
2 29494   1.2832  86.2435 0002970 286.0129 160.5025  1.00271527 67692
GALAXY 17 (G-17)        
1 31307U 07016B   25093.22177853 -.00000216  00000+0  00000+0 0  9990
2 31307   1.8564  85.5106 0003275 215.8544 245.2607  1.00271219 65663
DIRECTV 10              
1 31862U 07032A   25093.49623061 -.00000115  00000+0  00000+0 0  9998
2 31862   0.0399   9.3665 0000273 290.7562 327.7829  1.00271367 64998
INTELSAT 11 (IS-11)     
1 32253U 07044B   25093.50492215  .00000007  00000+0  00000+0 0  9992
2 32253   2.4182  84.0900 0001869 216.2996 333.6975  0.99044029 64120
HORIZONS-2              
1 32388U 07063B   25093.16634583 -.00000263  00000+0  00000+0 0  9995
2 32388   1.4645  86.0787 0002205 301.5790 150.1577  1.00269754 63465
DIRECTV 11              
1 32729U 08013A   25093.22822491 -.00000136  00000+0  00000+0 0  9993
2 32729   0.0172  24.5513 0000208 216.8492 293.3806  1.00271225 62523
GALAXY 18 (G-18)        
1 32951U 08024A   25093.23894278  .00000015  00000+0  00000+0 0  9990
2 32951   0.0181 221.5932 0002902 150.1599 143.0481  1.00271718 61677
INTELSAT 25 (IS-25)     
1 33153U 08034A   25093.46039970 -.00000235  00000+0  00000+0 0  9996
2 33153   1.5721  85.7474 0002960 281.9071 318.6170  1.00271967 61223
GALAXY 19 (G-19)        
1 33376U 08045A   25092.89697427 -.00000149  00000+0  00000+0 0  9992
2 33376   0.0253 257.7144 0002584 111.3478  48.3223  1.00273916 60421
FM-5                    
1 35493U 09034A   25093.21711505 -.00000211  00000+0  00000+0 0  9994
2 35493   0.0239 263.4773 0002953 294.1539 346.1617  1.00270243 57564
INTELSAT 14 (IS-14)     
1 36097U 09064A   25092.38656282 -.00000282  00000+0  00000+0 0  9993
2 36097   0.0095 170.9697 0002362 198.5510 275.6117  1.00270752 56185
INTELSAT 15 (IS-15)     
1 36106U 09067A   25092.79592494 -.00000195  00000+0  00000+0 0  9999
2 36106   0.0136 244.5629 0002216 127.0777 191.4085  1.00271590 36813
DIRECTV 12              
1 36131U 09075A   25093.49619536 -.00000115  00000+0  00000+0 0  9993
2 36131   0.0415  20.1565 0000579  22.1530 225.6650  1.00270217 55971
INTELSAT 16 (IS-16)     
1 36397U 10006A   25092.52317522 -.00000253  00000+0  00000+0 0  9999
2 36397   0.0184 239.7184 0001713 137.4553 286.0635  1.00270486 55308
XM-5                    
1 37185U 10053A   25093.16700681 -.00000033  00000+0  00000+0 0  9996
2 37185   0.0249 265.5401 0001769 297.8852 293.2321  1.00270781 53037
INTELSAT 17 (IS-17)     
1 37238U 10065B   25092.87745847 -.00000011  00000+0  00000+0 0  9994
2 37238   0.0203 224.3774 0002774 165.4309 183.5363  1.00269249 52501
INTELSAT 28 (IS-28)     
1 37392U 11016A   25092.81916700 -.00000209  00000+0  00000+0 0  9993
2 37392   0.6660  88.3775 0003957 280.4584  93.3132  1.00143799 51109
INTELSAT 18 (IS-18)     
1 37834U 11056A   25092.64309044  .00000044  00000+0  00000+0 0  9992
2 37834   0.0171 171.2905 0001885 209.4840 221.9492  1.00271803 49396
INTELSAT 22 (IS-22)     
1 38098U 12011A   25092.88308587 -.00000068  00000+0  00000+0 0  9991
2 38098   0.0172 235.3656 0001793 148.9512 197.1670  1.00270077 47635
INTELSAT 19 (IS-19)     
1 38356U 12030A   25093.49958271 -.00000068  00000+0  00000+0 0  9998
2 38356   0.0142 176.6484 0002899 195.3029 165.9779  1.00269131 47106
INTELSAT 20 (IS-20)     
1 38740U 12043A   25092.62795473 -.00000033  00000+0  00000+0 0  9998
2 38740   0.0171 127.0111 0002729  51.6688 307.0880  1.00271819 46410
INTELSAT 21 (IS-21)     
1 38749U 12045A   25093.45510000 -.00000296  00000+0  00000+0 0  9993
2 38749   0.0373  88.3845 0001833 291.0772 278.3905  1.00269968 46224
INTELSAT 23 (IS-23)     
1 38867U 12057A   25092.81343291 -.00000294  00000+0  00000+0 0  9990
2 38867   0.0208 164.5276 0001340  63.9191 202.7796  1.00276420 45691
FM-6                    
1 39360U 13058A   25093.23377984 -.00000028  00000+0  00000+0 0  9999
2 39360   0.0124 234.0509 0000827 240.3133  45.4591  1.00271848 41932
INTELSAT 30 (IS-30)     
1 40271U 14062A   25092.58093832 -.00000159  00000+0  00000+0 0  9997
2 40271   0.0049 160.8166 0000659 255.0602 249.3655  1.00270688  2364
DIRECTV 14              
1 40333U 14078B   25093.50492183 -.00000137  00000+0  00000+0 0  9994
2 40333   0.0284 295.9435 0000489 293.9851  44.6790  1.00272241 37834
DIRECTV 15              
1 40663U 15026A   25092.56337031 -.00000111  00000+0  00000+0 0  9991
2 40663   0.0359  90.6288 0000506 171.3802  29.0769  1.00268770 36041
SKY MEXICO-1            
1 40664U 15026B   25093.45812273 -.00000246  00000+0  00000+0 0  9996
2 40664   0.0401 347.0004 0002286  42.5089 248.6734  1.00271553 36121
INTELSAT 34 (IS-34)     
1 40874U 15039A   25092.81299851 -.00000295  00000+0  00000+0 0  9997
2 40874   0.0149 239.6839 0000946  12.1021 176.7872  1.00270661 35206
INTELSAT 31 (IS-31)     
1 41581U 16035A   25092.35836667 -.00000158  00000+0  00000+0 0  9999
2 41581   0.0093 212.9746 0002395  15.2381 356.6741  1.00267936 32262
INTELSAT 36 (IS-36)     
1 41747U 16053A   25093.14669770 -.00000035  00000+0  00000+0 0  9994
2 41747   0.0137  32.1688 0001145 272.5820   8.2595  1.00271316 31522
INTELSAT 32E (IS-32E)   
1 41945U 17007B   25092.81543116 -.00000279  00000+0  00000+0 0  9992
2 41945   0.0189 117.2533 0000678 216.3114 108.1937  1.00269745 29839
INTELSAT 35E (IS-35E)   
1 42818U 17041A   25092.81716876 -.00000247  00000+0  00000+0 0  9990
2 42818   0.0187 178.0657 0001987 181.8383  91.1884  1.00271300 28399
INTELSAT 37E (IS-37E)   
1 42950U 17059A   25093.17737964 -.00000151  00000+0  00000+0 0  9991
2 42950   0.0188 217.6611 0001934 159.6697 220.2646  1.00271879 27638
AZERSPACE 2 (IS-38)     
1 43632U 18074A   25093.47560376  .00000125  00000+0  00000+0 0  9991
2 43632   0.0017 142.4495 0001818 221.6268  44.2933  1.00270400 24030
HORIZONS-3E             
1 43633U 18074B   25092.63144712 -.00000040  00000+0  00000+0 0  9998
2 43633   0.0095 219.3311 0001161  79.8440 288.3360  1.00271201 23926
AT&T T-16               
1 44333U 19034A   25093.44658573 -.00000126  00000+0  00000+0 0  9993
2 44333   0.0334  91.2371 0001469  88.6672  72.0081  1.00269492 21216
INTELSAT 39 (IS-39)     
1 44476U 19049B   25092.87822709  .00000024  00000+0  00000+0 0  9993
2 44476   0.0166 167.4896 0000646   0.0944  41.9674  1.00271349 20701
GALAXY 30 (G-30)        
1 46114U 20056C   25093.19419634  .00000026  00000+0  00000+0 0  9991
2 46114   0.0189 220.3432 0001947 148.5465 127.7771  1.00269801 16990
GALAXY 33 (G-33)        
1 54026U 22128A   25093.15311344  .00000069  00000+0  00000+0 0  9996
2 54026   0.0173 233.4392 0001842 128.9177 111.4880  1.00270126  9322
GALAXY 34 (G-34)        
1 54027U 22128B   25093.55531255  .00000047  00000+0  00000+0 0  9992
2 54027   0.0190 197.5080 0001432 176.0871 249.5244  1.00268356  9369
GALAXY 31 (G-31)        
1 54243U 22153A   25093.15704964  .00000003  00000+0  00000+0 0  9997
2 54243   0.0102 217.7051 0001229 137.0936 132.4711  1.00270936  8745
GALAXY 32 (G-32)        
1 54244U 22153B   25092.52030817 -.00000182  00000+0  00000+0 0  9996
2 54244   0.0094 184.1194 0002888 177.2850 285.9997  1.00271396  8723
GALAXY 35 (G-35)        
1 54741U 22170A   25093.19736178 -.00000173  00000+0  00000+0 0  9994
2 54741   0.0141 207.4996 0001861 157.0492 165.1653  1.00271721  8499
GALAXY 36 (G-36)        
1 54742U 22170B   25092.89697427 -.00000195  00000+0  00000+0 0  9998
2 54742   0.0126 153.9743 0002013 255.4340  15.9618  1.00270947  8507
GALAXY 37 (G-37)        
1 57493U 23112A   25093.25242003  .00000037  00000+0  00000+0 0  9992
2 57493   0.0175  99.6077 0001937 260.7653 155.3163  1.00270155  6102
